NORAD_CAT_ID,OBJECT_NAME,OBJECT_TYPE,EPOCH,MEAN_MOTION,ECCENTRICITY,INCLINATION,RA_OF_ASC_NODE,ARG_OF_PERICENTER,MEAN_ANOMALY,BSTAR,MEAN_MOTION_DOT,MEAN_MOTION_DDOT,TLE_LINE0,TLE_LINE1,TLE_LINE2,SEMIMAJOR_AXIS,PERIOD,APOGEE,PERIGEE,DECAYED
53017.0,STARLINK-4281,PAYLOAD,2022-07-22 06:00:00,15.7325144,0.0001584,53.2186,306.7945,50.4776,305.7004,-0.00020999,-0.00030052,0.0,0 STARLINK-4281,1 53017U 22076AH  22203.25001157 -.00030052  00000-0 -20999-3 0  9997,2 53017  53.2186 306.7945 0001584  50.4776 305.7004 15.73251440  1309,6727.749,91.53,350.67900000000014,348.548,0.0
53017.0,STARLINK-4281,PAYLOAD,2022-07-22 12:00:00,15.73223356,0.0001651,53.2187,305.5589,42.5486,290.3683,7.833800000000001e-05,0.00010398,0.0,0 STARLINK-4281,1 53017U 22076AH  22203.50001157  .00010398  00000-0  78338-4 0  9995,2 53017  53.2187 305.5589 0001651  42.5486 290.3683 15.73223356  2854,6727.829000000002,91.532,350.80400000000014,348.583,0.0
53017.0,STARLINK-4281,PAYLOAD,2022-07-22 20:00:01,15.732984599999998,0.0001834,53.2178,303.9078,35.9497,25.9156,-0.0013918,-0.00192377,0.0,0 STARLINK-4281,1 53017U 22076AH  22203.83334491 -.00192377  00000-0 -13918-2 0  9992,2 53017  53.2178 303.9078 0001834  35.9497  25.9156 15.73298460  2901,6727.614000000001,91.527,350.713,348.246,0.0
53017.0,STARLINK-4281,PAYLOAD,2022-07-22 22:00:00,15.73318708,0.000178,53.218,303.4942,39.2829,134.8247,-0.0022889,-0.00311847,0.0,0 STARLINK-4281,1 53017U 22076AH  22203.91667824 -.00311847  00000-0 -22889-2 0  9992,2 53017  53.2180 303.4942 0001780  39.2829 134.8247 15.73318708  1307,6727.557,91.526,350.619,348.224,0.0
53017.0,STARLINK-4281,PAYLOAD,2022-07-23 04:00:00,15.731888199999998,0.0001681,53.2189,302.2583,42.7871,108.1168,5.879100000000003e-05,7.634e-05,0.0,0 STARLINK-4281,1 53017U 22076AH  22204.16667824  .00007634  00000-0  58791-4 0  9997,2 53017  53.2189 302.2583 0001681  42.7871 108.1168 15.73188820  2958,6727.927,91.534,350.923,348.661,0.0
53017.0,STARLINK-4281,PAYLOAD,2022-07-23 14:00:01,15.73133669,0.0002110999999999,53.2189,300.1986,45.2243,306.853,0.00024259,0.00033466,0.0,0 STARLINK-4281,1 53017U 22076AH  22204.58335648  .00033466  00000-0  24259-3 0  9992,2 53017  53.2189 300.1986 0002111  45.2243 306.8530 15.73133669  3022,6728.084,91.537,351.37,348.529,0.0
53017.0,STARLINK-4281,PAYLOAD,2022-07-23 22:00:00,15.73187432,0.0002046999999999,53.2181,298.5473,45.614,35.2531,0.00011814,0.00015983,0.0,0 STARLINK-4281,1 53017U 22076AH  22204.91667824  .00015983  00000-0  11814-3 0  9990,2 53017  53.2181 298.5473 0002047  45.6140  35.2531 15.73187432  1303,6727.931,91.534,351.173,348.4190000000001,0.0
53017.0,STARLINK-4281,PAYLOAD,2022-07-24 14:00:01,15.73246955,0.0002056,53.2188,295.2509,42.6137,216.0933,-0.00046844,-0.00065988,0.0,0 STARLINK-4281,1 53017U 22076AH  22205.58334491 -.00065988  00000-0 -46844-3 0  9998,2 53017  53.2188 295.2509 0002056  42.6137 216.0933 15.73246955  1308,6727.761,91.53,351.01,348.24300000000005,0.0
53017.0,STARLINK-4281,PAYLOAD,2022-07-24 22:00:00,15.73230084,0.0001821,53.219,293.6005,35.5316,312.1227,-0.00077405,-0.00108016,0.0,0 STARLINK-4281,1 53017U 22076AH  22205.91667824 -.00108016  00000-0 -77405-3 0  9991,2 53017  53.2190 293.6005 0001821  35.5316 312.1227 15.73230084  1303,6727.809,91.531,350.9,348.449,0.0
53017.0,STARLINK-4281,PAYLOAD,2022-07-25 04:00:01,15.73121451,0.0001704,53.219,292.3622,36.5664,287.8418,0.00040383,0.00056245,0.0,0 STARLINK-4281,1 53017U 22076AH  22206.16668981  .00056245  00000-0  40383-3 0  9993,2 53017  53.2190 292.3622 0001704  36.5664 287.8418 15.73121451  3276,6728.119000000002,91.538,351.131,348.838,0.0
53017.0,STARLINK-4281,PAYLOAD,2022-07-25 14:00:01,15.73158859,0.0002017,53.2189,290.303,32.9477,132.4935,0.00031501,0.00043743,0.0,0 STARLINK-4281,1 53017U 22076AH  22206.58334491  .00043743  00000-0  31501-3 0  9996,2 53017  53.2189 290.3030 0002017  32.9477 132.4935 15.73158859  1308,6728.012,91.536,351.235,348.52,0.0
53017.0,STARLINK-4281,PAYLOAD,2022-07-25 22:00:00,15.73208955,0.0001893,53.2184,288.6525,34.1928,220.1437,-3.5869e-05,-5.654e-05,0.0,0 STARLINK-4281,1 53017U 22076AH  22206.91667824 -.00005654  00000-0 -35869-4 0  9995,2 53017  53.2184 288.6525 0001893  34.1928 220.1437 15.73208955  1303,6727.87,91.533,351.0080000000001,348.461,0.0
53017.0,STARLINK-4281,PAYLOAD,2022-07-26 04:00:01,15.73190202,0.0001759,53.2184,287.4144,37.6815,193.4197,0.00049144,0.0006888999999999,0.0,0 STARLINK-4281,1 53017U 22076AH  22207.16668981  .00068890  00000-0  49144-3 0  9997,2 53017  53.2184 287.4144 0001759  37.6815 193.4197 15.73190202  3437,6727.9230000000025,91.534,350.972,348.605,0.0
53017.0,STARLINK-4281,PAYLOAD,2022-07-26 12:00:00,15.7323135,0.0001993,53.2185,285.7672,33.7781,286.1992,9.2613e-05,0.00012414,0.0,0 STARLINK-4281,1 53017U 22076AH  22207.50001157  .00012414  00000-0  92613-4 0  9992,2 53017  53.2185 285.7672 0001993  33.7781 286.1992 15.73231350  3482,6727.806,91.531,351.01199999999994,348.33,0.0
53017.0,STARLINK-4281,PAYLOAD,2022-07-26 14:00:01,15.73220257,0.0002013,53.2188,285.3553,32.4436,39.7784,0.00034455,0.00048056,0.0,0 STARLINK-4281,1 53017U 22076AH  22207.58334491  .00048056  00000-0  34455-3 0  9990,2 53017  53.2188 285.3553 0002013  32.4436  39.7784 15.73220257  1300,6727.837,91.532,351.057,348.348,0.0
53017.0,STARLINK-4281,PAYLOAD,2022-07-26 22:00:00,15.73285632,0.0001894,53.2189,283.7043,29.1138,132.0865,-0.00073492,-0.00102893,0.0,0 STARLINK-4281,1 53017U 22076AH  22207.91667824 -.00102893  00000-0 -73492-3 0  9992,2 53017  53.2189 283.7043 0001894  29.1138 132.0865 15.73285632  1300,6727.651,91.528,350.79,348.242,0.0
53017.0,STARLINK-4281,PAYLOAD,2022-07-27 14:00:01,15.73244794,0.0002029999999999,53.2186,280.407,24.1853,314.9611,-0.00041846,-0.00059056,0.0,0 STARLINK-4281,1 53017U 22076AH  22208.58334491 -.00059056  00000-0 -41846-3 0  9997,2 53017  53.2186 280.4070 0002030  24.1853 314.9611 15.73244794  3657,6727.767,91.531,350.99800000000016,348.267,0.0
53017.0,STARLINK-4281,PAYLOAD,2022-07-27 22:00:00,15.73199147,0.0001810999999999,53.2181,278.7561,20.8557,47.25,8.920799999999999e-05,0.00011917,0.0,0 STARLINK-4281,1 53017U 22076AH  22208.91667824  .00011917  00000-0  89208-4 0  9990,2 53017  53.2181 278.7561 0001811  20.8557  47.2500 15.73199147  1301,6727.898,91.533,350.981,348.5440000000001,0.0
53017.0,STARLINK-4281,PAYLOAD,2022-07-28 04:00:00,15.73199973,0.0001742,53.2182,277.5183,25.45300000000001,19.3512,0.0004271,0.00059749,0.0,0 STARLINK-4281,1 53017U 22076AH  22209.16667824  .00059749  00000-0  42710-3 0  9999,2 53017  53.2182 277.5183 0001742  25.4530  19.3512 15.73199973  3744,6727.895,91.533,350.932,348.588,0.0
53017.0,STARLINK-4281,PAYLOAD,2022-07-28 14:00:01,15.73210769,0.0002147,53.2183,275.4591,25.0089,220.9954,-0.00011291,-0.00016445,0.0,0 STARLINK-4281,1 53017U 22076AH  22209.58334491 -.00016445  00000-0 -11291-3 0  9994,2 53017  53.2183 275.4591 0002147  25.0089 220.9954 15.73210769  1307,6727.864000000001,91.533,351.1740000000001,348.285,0.0
53017.0,STARLINK-4281,PAYLOAD,2022-07-28 22:00:00,15.73204365,0.0002055,53.2183,273.8079,29.5711,305.3735,0.00010096,0.00013574,0.0,0 STARLINK-4281,1 53017U 22076AH  22209.91667824  .00013574  00000-0  10096-3 0  9990,2 53017  53.2183 273.8079 0002055  29.5711 305.3735 15.73204365  3862,6727.8830000000025,91.533,351.13,348.365,0.0
53017.0,STARLINK-4281,PAYLOAD,2022-07-29 14:00:01,15.73148957,0.0002463999999999,53.218,270.5107,33.5589,119.2536,0.00047263,0.00066094,0.0,0 STARLINK-4281,1 53017U 22076AH  22210.58334491  .00066094  00000-0  47263-3 0  9997,2 53017  53.2180 270.5107 0002464  33.5589 119.2536 15.73148957  3963,6728.041,91.536,351.56300000000016,348.24800000000016,0.0
53017.0,STARLINK-4281,PAYLOAD,2022-07-29 22:00:00,15.73189625,0.0002289,53.2177,268.8596,36.4453,205.2656,0.0001177,0.00015922,0.0,0 STARLINK-4281,1 53017U 22076AH  22210.91667824  .00015922  00000-0  11770-3 0  9991,2 53017  53.2177 268.8596 0002289  36.4453 205.2656 15.73189625  1300,6727.925,91.534,351.33,348.25,0.0
53017.0,STARLINK-4281,PAYLOAD,2022-07-30 04:00:00,15.73201273,0.00022,53.2177,267.6222,39.3822,179.0151,0.00029126,0.00040457,0.0,0 STARLINK-4281,1 53017U 22076AH  22211.16667824  .00040457  00000-0  29126-3 0  9994,2 53017  53.2177 267.6222 0002200  39.3822 179.0151 15.73201273  4066,6727.892,91.533,351.237,348.276,0.0
53017.0,STARLINK-4281,PAYLOAD,2022-07-30 12:00:00,15.73239299,0.0002398,53.2176,265.9748,33.8837,273.4561,-0.0004452,-0.00062752,0.0,0 STARLINK-4281,1 53017U 22076AH  22211.50001157 -.00062752  00000-0 -44520-3 0  9992,2 53017  53.2176 265.9748 0002398  33.8837 273.4561 15.73239299  4111,6727.783,91.531,351.261,348.035,0.0
53017.0,STARLINK-4281,PAYLOAD,2022-07-30 14:00:01,15.732162300000002,0.0002394,53.2176,265.5627,31.7857,27.8001,-0.00022566,-0.00032197,0.0,0 STARLINK-4281,1 53017U 22076AH  22211.58334491 -.00032197  00000-0 -22566-3 0  9996,2 53017  53.2176 265.5627 0002394  31.7857  27.8001 15.73216230  1306,6727.849,91.532,351.325,348.103,0.0
53017.0,STARLINK-4281,PAYLOAD,2022-07-30 22:00:00,15.73174374,0.0002197,53.2179,263.9112,31.2041,117.3229,0.00022631,0.00031225,0.0,0 STARLINK-4281,1 53017U 22076AH  22211.91667824  .00031225  00000-0  22631-3 0  9994,2 53017  53.2179 263.9112 0002197  31.2041 117.3229 15.73174374  1300,6727.968000000003,91.535,351.311,348.355,0.0
53017.0,STARLINK-4281,PAYLOAD,2022-07-31 04:00:00,15.73197236,0.0002229,53.218,262.6738,35.5222,89.6797,0.00022278,0.00030758,0.0,0 STARLINK-4281,1 53017U 22076AH  22212.16667824  .00030758  00000-0  22278-3 0  9999,2 53017  53.2180 262.6738 0002229  35.5222  89.6797 15.73197236  4212,6727.903,91.533,351.26800000000014,348.26800000000014,0.0
53017.0,STARLINK-4281,PAYLOAD,2022-07-31 14:00:01,15.73190207,0.0002525999999999,53.2175,260.6141,31.0125,295.3628,0.0004686,0.00065638,0.0,0 STARLINK-4281,1 53017U 22076AH  22212.58334491  .00065638  00000-0  46860-3 0  9994,2 53017  53.2175 260.6141 0002526  31.0125 295.3628 15.73190207  1302,6727.9230000000025,91.534,351.48800000000006,348.089,0.0
